H1 CPF 01  gfz 2021 11 04 13  8082 terrasarx 
H2 0702601  6201 31698    2021 11 04 12 59 42 2021 11 09 00 00 42   120 1 1  0 0 0
H9
10 0 59526  82062.000000  0      48863.336   2508194.527  -6422063.944
10 0 59526  82182.000000  0     371485.161   1686337.515  -6675026.266
10 0 59526  82302.000000  0     672987.185    829807.794  -6811533.301
10 0 59526  82422.000000  0     947676.564    -46133.055  -6829238.287
10 0 59526  82542.000000  0    1190594.582   -925803.325  -6727838.539
10 0 59526  82662.000000  0    1397603.480  -1793375.282  -6509078.407
10 0 59526  82782.000000  0    1565455.469  -2633151.874  -6176722.557
10 0 59526  82902.000000  0    1691843.844  -3429844.790  -5736499.695
10 0 59526  83022.000000  0    1775433.929  -4168852.081  -5196014.774
10 0 59526  83142.000000  0    1815873.884  -4836527.181  -4564626.984
10 0 59526  83262.000000  0    1813785.425  -5420433.923  -3853298.668
10 0 59526  83382.000000  0    1770733.852  -5909586.629  -3074415.334
10 0 59526  83502.000000  0    1689176.840  -6294667.652  -2241576.631
10 0 59526  83622.000000  0    1572394.250  -6568216.133  -1369361.400
10 0 59526  83742.000000  0    1424399.832  -6724783.546   -473072.168
10 0 59526  83862.000000  0    1249836.205  -6761052.586    431538.415
10 0 59526  83982.000000  0    1053856.721  -6675912.109   1328551.129
10 0 59526  84102.000000  0     841995.296  -6470490.296   2202169.307
10 0 59526  84222.000000  0     620029.885  -6148140.349   3037007.312
10 0 59526  84342.000000  0     393840.441  -5714380.526   3818369.227
10 0 59526  84462.000000  0     169266.448  -5176792.146   4532511.839
10 0 59526  84582.000000  0     -48031.807  -4544878.250   5166888.857
10 0 59526  84702.000000  0    -252705.451  -3829885.326   5710370.786
10 0 59526  84822.000000  0    -439839.042  -3044593.291   6153437.695
10 0 59526  84942.000000  0    -605060.655  -2203077.758   6488339.709
10 0 59526  85062.000000  0    -744637.674  -1320453.438   6709224.728
10 0 59526  85182.000000  0    -855556.440   -412601.035   6812235.762
10 0 59526  85302.000000  0    -935584.993    504119.678   6795575.009
10 0 59526  85422.000000  0    -983317.057   1413164.591   6659533.119
10 0 59526  85542.000000  0    -998196.291   2298103.126   6406484.215
10 0 59526  85662.000000  0    -980521.327   3142914.713   6040847.132
10 0 59526  85782.000000  0    -931431.761   3932279.989   5569013.141
10 0 59526  85902.000000  0    -852874.350   4651861.565   4999239.717
10 0 59526  86022.000000  0    -747550.939   5288570.331   4341512.804
10 0 59526  86142.000000  0    -618848.381   5830812.072   3607375.504
10 0 59526  86262.000000  0    -470752.013   6268706.304   2809729.815
10 0 59526  86382.000000  0    -307745.844   6594279.961   1962610.733
99
